[
    {
        "Altitude(m)": 706658.5353121217,
        "Argument of Periapsis(deg)": 0.010251109067964361,
        "Eccentricity": 0.0,
        "Inclination(deg)": 45.0,
        "Latitude(deg)": 42.23644521595599,
        "Longitude(deg)": -70.25261718272142,
        "Mean Anomaly(deg)": -251.43830501726725,
        "RAAN(deg)": 274.99032325268763,
        "Satellite Name": "Constellation 1 1216",
        "Satellite Number": 1216,
        "Semi-Major Axis(m)": 7083131.272910544,
        "Time(s)": 171
    },
    {
        "Altitude(m)": 706654.4608721837,
        "Argument of Periapsis(deg)": 0.010311057074209765,
        "Eccentricity": 0.0,
        "Inclination(deg)": 45.0,
        "Latitude(deg)": 42.217932644836665,
        "Longitude(deg)": -70.1787909728305,
        "Mean Anomaly(deg)": -251.37760387701732,
        "RAAN(deg)": 274.99026666352205,
        "Satellite Name": "Constellation 1 1216",
        "Satellite Number": 1216,
        "Semi-Major Axis(m)": 7083131.272910544,
        "Time(s)": 172
    },
    {
        "Altitude(m)": 706650.3756683407,
        "Argument of Periapsis(deg)": 0.010371005080455171,
        "Eccentricity": 0.0,
        "Inclination(deg)": 45.0,
        "Latitude(deg)": 42.19936711418402,
        "Longitude(deg)": -70.1050103085575,
        "Mean Anomaly(deg)": -251.31690273676745,
        "RAAN(deg)": 274.9902100743565,
        "Satellite Name": "Constellation 1 1216",
        "Satellite Number": 1216,
        "Semi-Major Axis(m)": 7083131.272910544,
        "Time(s)": 173
    },
    {
        "Altitude(m)": 706646.2797249785,
        "Argument of Periapsis(deg)": 0.010430953086700577,
        "Eccentricity": 0.0,
        "Inclination(deg)": 45.0,
        "Latitude(deg)": 42.18074868875154,
        "Longitude(deg)": -70.03127526338923,
        "Mean Anomaly(deg)": -251.2562015965176,
        "RAAN(deg)": 274.9901534851909,
        "Satellite Name": "Constellation 1 1216",
        "Satellite Number": 1216,
        "Semi-Major Axis(m)": 7083131.272910544,
        "Time(s)": 174
    },
    {
        "Altitude(m)": 706642.1730665455,
        "Argument of Periapsis(deg)": 0.010490901092945983,
        "Eccentricity": 0.0,
        "Inclination(deg)": 45.0,
        "Latitude(deg)": 42.16207743337927,
        "Longitude(deg)": -69.95758591025658,
        "Mean Anomaly(deg)": -251.19550045626767,
        "RAAN(deg)": 274.9900968960253,
        "Satellite Name": "Constellation 1 1216",
        "Satellite Number": 1216,
        "Semi-Major Axis(m)": 7083131.272910544,
        "Time(s)": 175
    },
    {
        "Altitude(m)": 706638.055717561,
        "Argument of Periapsis(deg)": 0.010550849099191389,
        "Eccentricity": 0.0,
        "Inclination(deg)": 45.0,
        "Latitude(deg)": 42.143353412993,
        "Longitude(deg)": -69.88394232153503,
        "Mean Anomaly(deg)": -251.13479931601776,
        "RAAN(deg)": 274.9900403068598,
        "Satellite Name": "Constellation 1 1216",
        "Satellite Number": 1216,
        "Semi-Major Axis(m)": 7083131.272910544,
        "Time(s)": 176
    },
    {
        "Altitude(m)": 706633.9277026177,
        "Argument of Periapsis(deg)": 0.010610797105436795,
        "Eccentricity": 0.0,
        "Inclination(deg)": 45.0,
        "Latitude(deg)": 42.12457669260312,
        "Longitude(deg)": -69.8103445690447,
        "Mean Anomaly(deg)": -251.07409817576786,
        "RAAN(deg)": 274.9899837176942,
        "Satellite Name": "Constellation 1 1216",
        "Satellite Number": 1216,
        "Semi-Major Axis(m)": 7083131.272910544,
        "Time(s)": 177
    },
    {
        "Altitude(m)": 706629.7890463659,
        "Argument of Periapsis(deg)": 0.0106707451116822,
        "Eccentricity": 0.0,
        "Inclination(deg)": 45.0,
        "Latitude(deg)": 42.10574733730399,
        "Longitude(deg)": -69.73679289214823,
        "Mean Anomaly(deg)": -251.01339703551798,
        "RAAN(deg)": 274.9899271285287,
        "Satellite Name": "Constellation 1 1216",
        "Satellite Number": 1216,
        "Semi-Major Axis(m)": 7083131.272910544,
        "Time(s)": 178
    },
    {
        "Altitude(m)": 706625.639773524,
        "Argument of Periapsis(deg)": 0.010730693117927606,
        "Eccentricity": 0.0,
        "Inclination(deg)": 45.0,
        "Latitude(deg)": 42.086865412273156,
        "Longitude(deg)": -69.66328702536374,
        "Mean Anomaly(deg)": -250.95269589526805,
        "RAAN(deg)": 274.98987053936304,
        "Satellite Name": "Constellation 1 1216",
        "Satellite Number": 1216,
        "Semi-Major Axis(m)": 7083131.272910544,
        "Time(s)": 179
    },
    {
        "Altitude(m)": 706621.47990888,
        "Argument of Periapsis(deg)": 0.01079064112417301,
        "Eccentricity": 0.0,
        "Inclination(deg)": 45.0,
        "Latitude(deg)": 42.06793098277024,
        "Longitude(deg)": -69.58982720694632,
        "Mean Anomaly(deg)": -250.8919947550182,
        "RAAN(deg)": 274.98981395019746,
        "Satellite Name": "Constellation 1 1216",
        "Satellite Number": 1216,
        "Semi-Major Axis(m)": 7083131.272910544,
        "Time(s)": 180
    },
    {
        "Altitude(m)": 706617.3094772927,
        "Argument of Periapsis(deg)": 0.010850589130418416,
        "Eccentricity": 0.0,
        "Inclination(deg)": 45.0,
        "Latitude(deg)": 42.04894411413614,
        "Longitude(deg)": -69.5164135065014,
        "Mean Anomaly(deg)": -250.83129361476827,
        "RAAN(deg)": 274.98975736103193,
        "Satellite Name": "Constellation 1 1216",
        "Satellite Number": 1216,
        "Semi-Major Axis(m)": 7083131.272910544,
        "Time(s)": 181
    },
    {
        "Altitude(m)": 706613.128503679,
        "Argument of Periapsis(deg)": 0.01091053713666382,
        "Eccentricity": 0.0,
        "Inclination(deg)": 45.0,
        "Latitude(deg)": 42.029904871792375,
        "Longitude(deg)": -69.44304599308226,
        "Mean Anomaly(deg)": -250.77059247451845,
        "RAAN(deg)": 274.98970077186635,
        "Satellite Name": "Constellation 1 1216",
        "Satellite Number": 1216,
        "Semi-Major Axis(m)": 7083131.272910544,
        "Time(s)": 182
    },
    {
        "Altitude(m)": 706608.9370130221,
        "Argument of Periapsis(deg)": 0.010970485142909228,
        "Eccentricity": 0.0,
        "Inclination(deg)": 45.0,
        "Latitude(deg)": 42.01081332123987,
        "Longitude(deg)": -69.36972473518979,
        "Mean Anomaly(deg)": -250.70989133426843,
        "RAAN(deg)": 274.98964418270083,
        "Satellite Name": "Constellation 1 1216",
        "Satellite Number": 1216,
        "Semi-Major Axis(m)": 7083131.272910544,
        "Time(s)": 183
    },
    {
        "Altitude(m)": 706604.7350303838,
        "Argument of Periapsis(deg)": 0.011030433149154634,
        "Eccentricity": 0.0,
        "Inclination(deg)": 45.0,
        "Latitude(deg)": 41.99166952805855,
        "Longitude(deg)": -69.29644980077498,
        "Mean Anomaly(deg)": -250.64919019401853,
        "RAAN(deg)": 274.9895875935352,
        "Satellite Name": "Constellation 1 1216",
        "Satellite Number": 1216,
        "Semi-Major Axis(m)": 7083131.272910544,
        "Time(s)": 184
    },
    {
        "Altitude(m)": 706600.522580875,
        "Argument of Periapsis(deg)": 0.01109038115540004,
        "Eccentricity": 0.0,
        "Inclination(deg)": 45.0,
        "Latitude(deg)": 41.97247355790602,
        "Longitude(deg)": -69.22322142533395,
        "Mean Anomaly(deg)": -250.58848905376874,
        "RAAN(deg)": 274.9895310043696,
        "Satellite Name": "Constellation 1 1216",
        "Satellite Number": 1216,
        "Semi-Major Axis(m)": 7083131.272910544,
        "Time(s)": 185
    },
    {
        "Altitude(m)": 706596.2996896894,
        "Argument of Periapsis(deg)": 0.011150329161645444,
        "Eccentricity": 0.0,
        "Inclination(deg)": 45.0,
        "Latitude(deg)": 41.95322547651719,
        "Longitude(deg)": -69.1500393395231,
        "Mean Anomaly(deg)": -250.52778791351872,
        "RAAN(deg)": 274.9894744152041,
        "Satellite Name": "Constellation 1 1216",
        "Satellite Number": 1216,
        "Semi-Major Axis(m)": 7083131.272910544,
        "Time(s)": 186
    },
    {
        "Altitude(m)": 706592.0663820703,
        "Argument of Periapsis(deg)": 0.01121027716789085,
        "Eccentricity": 0.0,
        "Inclination(deg)": 45.0,
        "Latitude(deg)": 41.933925349702974,
        "Longitude(deg)": -69.07690377774001,
        "Mean Anomaly(deg)": -250.4670867732689,
        "RAAN(deg)": 274.9894178260385,
        "Satellite Name": "Constellation 1 1216",
        "Satellite Number": 1216,
        "Semi-Major Axis(m)": 7083131.272910544,
        "Time(s)": 187
    },
    {
        "Altitude(m)": 706587.8226833403,
        "Argument of Periapsis(deg)": 0.011270225174136258,
        "Eccentricity": 0.0,
        "Inclination(deg)": 45.0,
        "Latitude(deg)": 41.914573243349714,
        "Longitude(deg)": -69.00381480573647,
        "Mean Anomaly(deg)": -250.406385633019,
        "RAAN(deg)": 274.9893612368729,
        "Satellite Name": "Constellation 1 1216",
        "Satellite Number": 1216,
        "Semi-Major Axis(m)": 7083131.272910544,
        "Time(s)": 188
    },
    {
        "Altitude(m)": 706583.5686188808,
        "Argument of Periapsis(deg)": 0.011330173180381662,
        "Eccentricity": 0.0,
        "Inclination(deg)": 45.0,
        "Latitude(deg)": 41.895169223418264,
        "Longitude(deg)": -68.9307724887169,
        "Mean Anomaly(deg)": -250.34568449276912,
        "RAAN(deg)": 274.9893046477074,
        "Satellite Name": "Constellation 1 1216",
        "Satellite Number": 1216,
        "Semi-Major Axis(m)": 7083131.272910544,
        "Time(s)": 189
    }
]